FLOCK 4H-34             
1 66737U 25276BZ  26204.17830523  .00006106  00000+0  27913-3 0  9991
2 66737  97.4223 277.4724 0003363 150.3871 209.7555 15.20913139 35152
FLOCK 4H-35             
1 66738U 25276CA  26204.15345594  .00006430  00000+0  29280-3 0  9998
2 66738  97.4181 277.3829 0003151 135.9903 224.1584 15.21024097 35195
FLOCK 4H-36             
1 66739U 25276CB  26204.19321716  .00006707  00000+0  30732-3 0  9994
2 66739  97.4228 277.4796 0003226 160.5414 199.5945 15.20796303 35906
