{"fetched_at":"2026-07-23T17:55:10.095Z","source":"https://celestrak.org/NORAD/elements/gp.php?GROUP=planet&FORMAT=JSON","constellation":"superdove","records":[{"OBJECT_NAME":"FLOCK 4H-34","OBJECT_ID":"2025-276BZ","EPOCH":"2026-07-23T04:16:45.571872","CLASSIFICATION_TYPE":"U","MEAN_MOTION":15.20913139,"ECCENTRICITY":0.00033631,"INCLINATION":97.4223,"RA_OF_ASC_NODE":277.4724,"ARG_OF_PERICENTER":150.3871,"MEAN_ANOMALY":209.7555,"EPHEMERIS_TYPE":0,"NORAD_CAT_ID":66737,"ELEMENT_SET_NO":999,"REV_AT_EPOCH":3515,"BSTAR":0.00027912649,"MEAN_MOTION_DOT":0.00006106,"MEAN_MOTION_DDOT":0},{"OBJECT_NAME":"FLOCK 4H-35","OBJECT_ID":"2025-276CA","EPOCH":"2026-07-23T03:40:58.593216","CLASSIFICATION_TYPE":"U","MEAN_MOTION":15.21024097,"ECCENTRICITY":0.00031514,"INCLINATION":97.4181,"RA_OF_ASC_NODE":277.3829,"ARG_OF_PERICENTER":135.9903,"MEAN_ANOMALY":224.1584,"EPHEMERIS_TYPE":0,"NORAD_CAT_ID":66738,"ELEMENT_SET_NO":999,"REV_AT_EPOCH":3519,"BSTAR":0.00029279579,"MEAN_MOTION_DOT":0.0000643,"MEAN_MOTION_DDOT":0},{"OBJECT_NAME":"FLOCK 4H-36","OBJECT_ID":"2025-276CB","EPOCH":"2026-07-23T04:38:13.962624","CLASSIFICATION_TYPE":"U","MEAN_MOTION":15.20796303,"ECCENTRICITY":0.00032269,"INCLINATION":97.4228,"RA_OF_ASC_NODE":277.4796,"ARG_OF_PERICENTER":160.5414,"MEAN_ANOMALY":199.5945,"EPHEMERIS_TYPE":0,"NORAD_CAT_ID":66739,"ELEMENT_SET_NO":999,"REV_AT_EPOCH":3590,"BSTAR":0.0003073213,"MEAN_MOTION_DOT":0.00006707,"MEAN_MOTION_DDOT":0}]}
